[{"OBJECT_NAME":"KUIPER-00065","OBJECT_ID":"2025-134AB","EPOCH":"2026-03-03T19:32:32.445888","MEAN_MOTION":14.79260932,"ECCENTRICITY":0.0001422,"INCLINATION":51.9022,"RA_OF_ASC_NODE":266.6563,"ARG_OF_PERICENTER":210.1733,"MEAN_ANOMALY":149.9148,"EPHEMERIS_TYPE":0,"CLASSIFICATION_TYPE":"U","NORAD_CAT_ID":64525,"ELEMENT_SET_NO":999,"REV_AT_EPOCH":3908,"BSTAR":0.00064453,"MEAN_MOTION_DOT":4.619e-5,"MEAN_MOTION_DDOT":0},{"OBJECT_NAME":"KUIPER-00066","OBJECT_ID":"2025-134AC","EPOCH":"2026-03-04T09:17:37.060800","MEAN_MOTION":15.231668,"ECCENTRICITY":0.0001623,"INCLINATION":51.8729,"RA_OF_ASC_NODE":209.0935,"ARG_OF_PERICENTER":279.8548,"MEAN_ANOMALY":80.2249,"EPHEMERIS_TYPE":0,"CLASSIFICATION_TYPE":"U","NORAD_CAT_ID":64526,"ELEMENT_SET_NO":999,"REV_AT_EPOCH":3995,"BSTAR":0.0012991,"MEAN_MOTION_DOT":0.00030916,"MEAN_MOTION_DDOT":0},{"OBJECT_NAME":"KUIPER-00069","OBJECT_ID":"2025-151A","EPOCH":"2026-03-04T00:59:51.508896","MEAN_MOTION":14.79948441,"ECCENTRICITY":7.27e-5,"INCLINATION":51.9022,"RA_OF_ASC_NODE":305.6002,"ARG_OF_PERICENTER":100.5475,"MEAN_ANOMALY":259.557,"EPHEMERIS_TYPE":0,"CLASSIFICATION_TYPE":"U","NORAD_CAT_ID":64816,"ELEMENT_SET_NO":999,"REV_AT_EPOCH":3592,"BSTAR":0.00095914,"MEAN_MOTION_DOT":7.101e-5,"MEAN_MOTION_DDOT":0},{"OBJECT_NAME":"KUIPER-00070","OBJECT_ID":"2025-151B","EPOCH":"2026-03-04T04:24:09.564192","MEAN_MOTION":14.79913541,"ECCENTRICITY":8.89e-5,"INCLINATION":51.9014,"RA_OF_ASC_NODE":329.9106,"ARG_OF_PERICENTER":96.0747,"MEAN_ANOMALY":264.0316,"EPHEMERIS_TYPE":0,"CLASSIFICATION_TYPE":"U","NORAD_CAT_ID":64817,"ELEMENT_SET_NO":999,"REV_AT_EPOCH":3560,"BSTAR":0.0010739,"MEAN_MOTION_DOT":7.972e-5,"MEAN_MOTION_DDOT":0},{"OBJECT_NAME":"KUIPER-00071","OBJECT_ID":"2025-151C","EPOCH":"2026-03-04T02:50:26.572704","MEAN_MOTION":14.80021108,"ECCENTRICITY":6.01e-5,"INCLINATION":51.9022,"RA_OF_ASC_NODE":327.7171,"ARG_OF_PERICENTER":234.6651,"MEAN_ANOMALY":125.4255,"EPHEMERIS_TYPE":0,"CLASSIFICATION_TYPE":"U","NORAD_CAT_ID":64818,"ELEMENT_SET_NO":999,"REV_AT_EPOCH":3444,"BSTAR":0.00096156,"MEAN_MOTION_DOT":7.132e-5,"MEAN_MOTION_DDOT":0},{"OBJECT_NAME":"KUIPER-00072","OBJECT_ID":"2025-151D","EPOCH":"2026-03-03T20:04:12.299808","MEAN_MOTION":14.7997927,"ECCENTRICITY":0.0001299,"INCLINATION":51.8982,"RA_OF_ASC_NODE":308.9526,"ARG_OF_PERICENTER":84.9309,"MEAN_ANOMALY":275.1801,"EPHEMERIS_TYPE":0,"CLASSIFICATION_TYPE":"U","NORAD_CAT_ID":64819,"ELEMENT_SET_NO":999,"REV_AT_EPOCH":3468,"BSTAR":0.00090925,"MEAN_MOTION_DOT":6.725e-5,"MEAN_MOTION_DDOT":0},{"OBJECT_NAME":"KUIPER-00073","OBJECT_ID":"2025-151E","EPOCH":"2026-03-03T03:20:45.983904","MEAN_MOTION":14.7993017,"ECCENTRICITY":0.00010117,"INCLINATION":51.9025,"RA_OF_ASC_NODE":332.0413,"ARG_OF_PERICENTER":103.181,"MEAN_ANOMALY":256.9265,"EPHEMERIS_TYPE":0,"CLASSIFICATION_TYPE":"U","NORAD_CAT_ID":64820,"ELEMENT_SET_NO":999,"REV_AT_EPOCH":3548,"BSTAR":-9.7124979e-5,"MEAN_MOTION_DOT":-9.61e-6,"MEAN_MOTION_DDOT":0},{"OBJECT_NAME":"KUIPER-00074","OBJECT_ID":"2025-151F","EPOCH":"2026-03-04T12:00:00.998784","MEAN_MOTION":14.97212052,"ECCENTRICITY":0.0001738,"INCLINATION":51.9039,"RA_OF_ASC_NODE":313.0799,"ARG_OF_PERICENTER":210.6309,"MEAN_ANOMALY":11.5495,"EPHEMERIS_TYPE":0,"CLASSIFICATION_TYPE":"U","NORAD_CAT_ID":64821,"ELEMENT_SET_NO":999,"REV_AT_EPOCH":368,"BSTAR":0.17611,"MEAN_MOTION_DOT":0.02250928,"MEAN_MOTION_DDOT":0},{"OBJECT_NAME":"KUIPER-00075","OBJECT_ID":"2025-151G","EPOCH":"2026-03-04T12:36:45.853344","MEAN_MOTION":15.41624201,"ECCENTRICITY":0.0003572,"INCLINATION":51.8704,"RA_OF_ASC_NODE":246.9192,"ARG_OF_PERICENTER":251.3232,"MEAN_ANOMALY":108.7368,"EPHEMERIS_TYPE":0,"CLASSIFICATION_TYPE":"U","NORAD_CAT_ID":64822,"ELEMENT_SET_NO":999,"REV_AT_EPOCH":3560,"BSTAR":0.001601,"MEAN_MOTION_DOT":0.00068719,"MEAN_MOTION_DDOT":0},{"OBJECT_NAME":"KUIPER-00076","OBJECT_ID":"2025-151H","EPOCH":"2026-03-04T02:05:29.154336","MEAN_MOTION":14.80459378,"ECCENTRICITY":5.3e-5,"INCLINATION":51.9006,"RA_OF_ASC_NODE":317.7758,"ARG_OF_PERICENTER":4.8601,"MEAN_ANOMALY":355.2366,"EPHEMERIS_TYPE":0,"CLASSIFICATION_TYPE":"U","NORAD_CAT_ID":64823,"ELEMENT_SET_NO":999,"REV_AT_EPOCH":3458,"BSTAR":0.00096175,"MEAN_MOTION_DOT":7.21e-5,"MEAN_MOTION_DDOT":0},{"OBJECT_NAME":"KUIPER-00077","OBJECT_ID":"2025-151J","EPOCH":"2026-03-04T02:08:18.610656","MEAN_MOTION":14.80135988,"ECCENTRICITY":0.0001064,"INCLINATION":51.9027,"RA_OF_ASC_NODE":322.8548,"ARG_OF_PERICENTER":186.322,"MEAN_ANOMALY":173.7729,"EPHEMERIS_TYPE":0,"CLASSIFICATION_TYPE":"U","NORAD_CAT_ID":64824,"ELEMENT_SET_NO":999,"REV_AT_EPOCH":3451,"BSTAR":0.0010177,"MEAN_MOTION_DOT":7.583e-5,"MEAN_MOTION_DDOT":0},{"OBJECT_NAME":"KUIPER-00078","OBJECT_ID":"2025-151K","EPOCH":"2026-03-03T17:18:58.042368","MEAN_MOTION":14.79944425,"ECCENTRICITY":6.771e-5,"INCLINATION":51.9016,"RA_OF_ASC_NODE":321.9789,"ARG_OF_PERICENTER":94.5761,"MEAN_ANOMALY":265.5279,"EPHEMERIS_TYPE":0,"CLASSIFICATION_TYPE":"U","NORAD_CAT_ID":64825,"ELEMENT_SET_NO":999,"REV_AT_EPOCH":3449,"BSTAR":0.00082861544,"MEAN_MOTION_DOT":6.103e-5,"MEAN_MOTION_DDOT":0},{"OBJECT_NAME":"KUIPER-00079","OBJECT_ID":"2025-151L","EPOCH":"2026-03-04T02:05:50.926272","MEAN_MOTION":14.79951144,"ECCENTRICITY":8.01e-5,"INCLINATION":51.9019,"RA_OF_ASC_NODE":325.3357,"ARG_OF_PERICENTER":96.4016,"MEAN_ANOMALY":263.7037,"EPHEMERIS_TYPE":0,"CLASSIFICATION_TYPE":"U","NORAD_CAT_ID":64826,"ELEMENT_SET_NO":999,"REV_AT_EPOCH":3567,"BSTAR":0.00068194,"MEAN_MOTION_DOT":4.984e-5,"MEAN_MOTION_DDOT":0},{"OBJECT_NAME":"KUIPER-00080","OBJECT_ID":"2025-151M","EPOCH":"2026-03-04T02:54:39.212352","MEAN_MOTION":14.79937835,"ECCENTRICITY":7.27e-5,"INCLINATION":51.9016,"RA_OF_ASC_NODE":325.1941,"ARG_OF_PERICENTER":89.3802,"MEAN_ANOMALY":270.7243,"EPHEMERIS_TYPE":0,"CLASSIFICATION_TYPE":"U","NORAD_CAT_ID":64827,"ELEMENT_SET_NO":999,"REV_AT_EPOCH":3448,"BSTAR":0.00029374,"MEAN_MOTION_DOT":2.019e-5,"MEAN_MOTION_DDOT":0},{"OBJECT_NAME":"KUIPER-00082","OBJECT_ID":"2025-151N","EPOCH":"2026-03-04T02:25:23.439936","MEAN_MOTION":14.79947532,"ECCENTRICITY":7.25e-5,"INCLINATION":51.9017,"RA_OF_ASC_NODE":312.8148,"ARG_OF_PERICENTER":90.5223,"MEAN_ANOMALY":269.5823,"EPHEMERIS_TYPE":0,"CLASSIFICATION_TYPE":"U","NORAD_CAT_ID":64828,"ELEMENT_SET_NO":999,"REV_AT_EPOCH":3465,"BSTAR":0.00093468,"MEAN_MOTION_DOT":6.914e-5,"MEAN_MOTION_DDOT":0},{"OBJECT_NAME":"KUIPER-00083","OBJECT_ID":"2025-151P","EPOCH":"2026-03-04T00:36:33.467904","MEAN_MOTION":14.7995191,"ECCENTRICITY":6.21e-5,"INCLINATION":51.9022,"RA_OF_ASC_NODE":320.6397,"ARG_OF_PERICENTER":95.5998,"MEAN_ANOMALY":264.5036,"EPHEMERIS_TYPE":0,"CLASSIFICATION_TYPE":"U","NORAD_CAT_ID":64829,"ELEMENT_SET_NO":999,"REV_AT_EPOCH":3572,"BSTAR":0.00094362,"MEAN_MOTION_DOT":6.983e-5,"MEAN_MOTION_DDOT":0},{"OBJECT_NAME":"KUIPER-00084","OBJECT_ID":"2025-151Q","EPOCH":"2026-03-04T03:35:29.148288","MEAN_MOTION":14.79907168,"ECCENTRICITY":8.02e-5,"INCLINATION":51.9035,"RA_OF_ASC_NODE":330.0723,"ARG_OF_PERICENTER":222.7778,"MEAN_ANOMALY":137.3122,"EPHEMERIS_TYPE":0,"CLASSIFICATION_TYPE":"U","NORAD_CAT_ID":64830,"ELEMENT_SET_NO":999,"REV_AT_EPOCH":3441,"BSTAR":2.9513e-5,"MEAN_MOTION_DOT":4.0e-8,"MEAN_MOTION_DDOT":0}]
