KUIPER-00065            
1 64525U 25134AB  26062.81426442  .00004619  00000+0  64453-3 0  9998
2 64525  51.9022 266.6563 0001422 210.1733 149.9148 14.79260932 39082
KUIPER-00066            
1 64526U 25134AC  26063.38723450  .00030916  00000+0  12991-2 0  9999
2 64526  51.8729 209.0935 0001623 279.8548  80.2249 15.23166800 39953
KUIPER-00069            
1 64816U 25151A   26063.04156839  .00007101  00000+0  95914-3 0  9991
2 64816  51.9022 305.6002 0000727 100.5475 259.5570 14.79948441 35923
KUIPER-00070            
1 64817U 25151B   26063.18344403  .00007972  00000+0  10739-2 0  9990
2 64817  51.9014 329.9106 0000889  96.0747 264.0316 14.79913541 35606
KUIPER-00071            
1 64818U 25151C   26063.11836311  .00007132  00000+0  96156-3 0  9994
2 64818  51.9022 327.7171 0000601 234.6651 125.4255 14.80021108 34444
KUIPER-00072            
1 64819U 25151D   26062.83625347  .00006725  00000+0  90925-3 0  9993
2 64819  51.8982 308.9526 0001299  84.9309 275.1801 14.79979270 34680
KUIPER-00073            
1 64820U 25151E   26062.13942111 -.00000961  00000+0 -97125-4 0  9997
2 64820  51.9025 332.0413 0001011 103.1810 256.9265 14.79930170 35483
KUIPER-00074            
1 64821U 25151F   26063.50001156  .02250928  00000+0  17611+0 0  9992
2 64821  51.9039 313.0799 0001738 210.6309  11.5495 14.97212052  3687
KUIPER-00075            
1 64822U 25151G   26063.52553071  .00068719  00000+0  16010-2 0  9991
2 64822  51.8704 246.9192 0003572 251.3232 108.7368 15.41624201 35600
KUIPER-00076            
1 64823U 25151H   26063.08714299  .00007210  00000+0  96175-3 0  9994
2 64823  51.9006 317.7758 0000530   4.8601 355.2366 14.80459378 34580
KUIPER-00077            
1 64824U 25151J   26063.08910429  .00007583  00000+0  10177-2 0  9998
2 64824  51.9027 322.8548 0001064 186.3220 173.7729 14.80135988 34511
KUIPER-00078            
1 64825U 25151K   26062.72150512  .00006103  00000+0  82862-3 0  9996
2 64825  51.9016 321.9789 0000677  94.5761 265.5279 14.79944425 34495
KUIPER-00079            
1 64826U 25151L   26063.08739498  .00004984  00000+0  68194-3 0  9990
2 64826  51.9019 325.3357 0000801  96.4016 263.7037 14.79951144 35670
KUIPER-00080            
1 64827U 25151M   26063.12128718  .00002019  00000+0  29374-3 0  9997
2 64827  51.9016 325.1941 0000727  89.3802 270.7243 14.79937835 34482
KUIPER-00082            
1 64828U 25151N   26063.10096574  .00006914  00000+0  93468-3 0  9993
2 64828  51.9017 312.8148 0000725  90.5223 269.5823 14.79947532 34659
KUIPER-00083            
1 64829U 25151P   26063.02538736  .00006983  00000+0  94362-3 0  9996
2 64829  51.9022 320.6397 0000621  95.5998 264.5036 14.79951910 35723
KUIPER-00084            
1 64830U 25151Q   26063.14964292  .00000004  00000+0  29513-4 0  9996
2 64830  51.9035 330.0723 0000802 222.7778 137.3122 14.79907168 34412
